#cP2015  8  2  0  0  0.00000000      96 ORBIT IGb08 HLM  IGS
## 1856      0.00000000   900.00000000 57236 0.0000000000000
+   32   G01G02G03G04G05G06G07G08G09G10G11G12G13G14G15G16G17
+        G18G19G20G21G22G23G24G25G26G27G28G29G30G31G32  0  0
+          0  0  0  0  0  0  0  0  0  0  0  0  0  0  0  0  0
+          0  0  0  0  0  0  0  0  0  0  0  0  0  0  0  0  0
+          0  0  0  0  0  0  0  0  0  0  0  0  0  0  0  0  0
++         2  2  2  2  2  2  2  0  2  2  2  2  2  2  2  2  2
++         3  2  2  2  2  2  2  2  2  2  2  2  2  2  2  0  0
++         0  0  0  0  0  0  0  0  0  0  0  0  0  0  0  0  0
++         0  0  0  0  0  0  0  0  0  0  0  0  0  0  0  0  0
++         0  0  0  0  0  0  0  0  0  0  0  0  0  0  0  0  0
%c G  cc GPS ccc cccc cccc cccc cccc ccccc ccccc ccccc ccccc
%c cc cc ccc ccc cccc cccc cccc cccc ccccc ccccc ccccc ccccc
%f  1.2500000  1.025000000  0.00000000000  0.000000000000000
%f  0.0000000  0.000000000  0.00000000000  0.000000000000000
%i    0    0    0    0      0      0      0      0         0
%i    0    0    0    0      0      0      0      0         0
/* FINAL ORBIT COMBINATION FROM WEIGHTED AVERAGE OF:        
/* cod emr esa gfz grg jpl mit ngs sio                      
/* REFERENCED TO IGS TIME (IGST) AND TO WEIGHTED MEAN POLE: 
/* PCV:IGS08_1854 OL/AL:FES2004  NONE     Y  ORB:CMB CLK:CMB
*  2015  8  2  2 15  0.00000000
PG01  -8227.909260  19590.560181 -15871.703181     -1.936868  6  4  4 105       
PG02  21887.229959 -14148.811847  -3290.580413    581.756099  7  8  7 102       
PG03   1909.583142  16622.300453 -20606.125770     12.954316  8  6  3  91       
PG04 -15579.452809  19699.232069  -8554.234275     -6.387921  7  8  7  16       
PG05  18728.216816  -5990.029910  17889.047008   -211.217360  7  7  3  66       
PG06  21939.747988  -3623.397477 -14523.615669     29.120084  5  6  5 124       
PG07   6740.301308  13590.199818  21891.523919    477.744194  6  8  6 120       
PG08  -7431.281747  21472.434499  14015.815029 999999.999999
PG09   7983.353627  24240.083644   7321.028712     -9.917548  4  3  6 111       
PG10  25038.479723   8993.169899   2751.597691   -184.925852  7  8  5 117       
PG11  -7701.204239  24035.440410  -8638.406843   -595.193678  5  8  6  88       
PG12   1295.881177 -15327.995613 -21787.981520    315.198985  6  7  6 103       
PG13  12494.606409 -14505.292120  18325.867474   -137.392066  7  6  3  90       
PG14 -13818.897737 -11376.188059 -19423.643081     44.717322  7  6  7 107       
PG15   5002.995146 -23140.562146  11614.984111   -263.771885  9  7  6  93       
PG16 -19020.355203   3610.760357  18267.846224   -102.040399 10 10  8 138       
PG17  14255.952579   9681.969620 -19970.254343   -182.522980  6  9  8 111       
PG18 -18994.937023 -16100.567016  10145.895255    422.100920  9  9  7 103       
PG19  -8176.105575  21632.695750  12426.135253   -517.344877  9  7  7 125       
PG20   1876.039845 -16029.026409  20938.853215    343.470364  4  6  5 112       
PG21 -10399.854577 -12327.794562  21819.054571   -468.635201  6  7  5  98       
PG22 -25038.243025  -8931.062585  -1732.474521    377.113059 10  9  6 124       
PG23   -390.702340  25924.232235  -4372.679983   -124.649761  7  9  4  75       
PG24  10521.786031 -20169.966265 -13618.389500     -2.308881  7  9  7 120       
PG25 -12339.658524 -17287.923357 -16151.853937    -20.239189  6  7  8  98       
PG26 -24344.396432  -2755.320269  10252.491187    -18.673034  7  8  7 137       
PG27 -12538.909050  11970.185491  20063.209702      8.757692  6  7  7 128       
PG28  22869.710157  13523.374405   1983.541035    457.711988  5  8  8 112       
PG29  -5158.033108 -25497.188934   5493.572062    625.794635  6  6  8 130       
PG30  16647.236364   6071.394601  19803.578219     -1.980395  6  6  7 105       
PG31 -22722.129167   4846.206438 -13042.457103    307.825046  7  7  7 125       
PG32 -11825.893825  10885.412538 -21098.150794    -83.864322  5  9  3  69       
*  2015  8  2  2 30  0.00000000
PG01  -9683.693072  20476.086122 -13768.903227     -1.936341  6  4  4 100       
PG02  21657.891078 -13510.981034  -6064.406836    581.757902  7  9  8  98       
PG03   -347.274478  15792.132826 -21333.916392     12.957075  8  6  3  89       
PG04 -16390.719676  19962.330776  -5888.761891     -6.391051  7  8  7  79       
PG05  20486.434567  -5117.505983  16171.539240   -211.213427  8  8  3  63       
PG06  20654.096856  -2385.680430 -16527.525943     29.127304  5  6  5 125       
PG07   4742.492572  15020.798083  21440.075058    477.746228  6  8  6 121       
PG08  -7854.203168  19816.116954  16077.578965 999999.999999
PG09   7827.516823  24952.999692   4582.251508     -9.918736  4  4  6 110       
PG10  25114.633713   9326.118001    -34.415132   -184.928444  7  8  5 112       
PG11  -8470.048962  24491.915090  -6092.650000   -595.196048  5  7  6  98       
PG12   3562.809851 -14311.042516 -22206.211721    315.202171  6  8  7 111       
PG13  12668.289332 -12312.818203  19735.529867   -137.395030  6  6  3  72       
PG14 -13843.194992 -13560.932333 -17982.458134     44.714782  7  6  7 116       
PG15   5574.145643 -21735.097710  13866.056580   -263.773714  9  8  6  84       
PG16 -20770.937034   2673.722532  16473.074557   -102.036451  9 10  8 132       
PG17  14378.843518  11939.976224 -18654.129094   -182.524243  5  8  7 118       
PG18 -17751.895131 -15925.186533  12492.718374    422.103686  8  8  7 105       
PG19  -8466.099569  20046.960965  14692.007253   -517.345678  9  8  7 128       
PG20   4222.423563 -15317.928159  21134.935247    343.473415  4  6  5 118       
PG21  -8562.018053 -13796.282640  21704.528234   -468.637297  6  6  4  98       
PG22 -24976.393677  -9280.840389   1034.969700    377.116831 10  9  6 129       
PG23   -801.159412  25289.018164  -7123.089052   -124.652059  7  9  5  54       
PG24  11776.825042 -20888.475568 -11290.790675     -2.309525  7  9  7 129       
PG25 -10508.056023 -16682.670296 -17977.215904    -20.243386  7  7  7 100       
PG26 -25211.908796  -3350.218956   7651.524372    -18.679440  7  9  6 138       
PG27 -12965.311078   9650.469100  21028.350274      8.760229  6  7  7 124       
PG28  22511.216898  13529.237015   4855.419688    457.714256  5  7  7  92       
PG29  -4989.092028 -25977.839003   2664.677410    625.796460  6  6  8 130       
PG30  14771.355116   7445.329101  20790.644292     -1.973813  6  5  6 111       
PG31 -21501.249907   3765.980277 -15231.343609    307.824002  7  7  6 113       
PG32 -13910.488128   9735.071218 -20326.240572    -83.855086  6  9  3  64       
*  2015  8  2  2 45  0.00000000
PG01 -10902.851201  21270.568990 -11427.730254     -1.935834  6  5  4  86       
PG02  21233.297778 -12646.804597  -8729.938250    581.759927  6  9  8 103       
PG03  -2702.283708  15060.487178 -21693.998594     12.959851  8  6  3  78       
PG04 -16964.415715  20055.686996  -3121.186178     -6.393835  7  8  7  70       
PG05  22085.790931  -4399.851843  14176.876531   -211.209737  8  8  4  64       
PG06  19277.658572   -942.162300 -18247.017346     29.134483  5  6  5 120       
PG07   2875.878692  16512.491921  20621.548588    477.747984  6  8  6 121       
PG08  -8407.682879  17973.094868  17866.963259 999999.999999
PG09   7644.250898  25365.064778   1764.518636     -9.919957  4  4  6 106       
PG10  24913.713203   9550.790983  -2819.888720   -184.929681  7  8  5 121       
PG11  -9084.984383  24725.560730  -3442.797549   -595.197821  5  7  6 103       
PG12   5910.068530 -13415.061626 -22246.505273    315.205015  7  8  8 106       
PG13  12973.116264  -9990.896912  20802.786488   -137.398134  5  6  2  75       
PG14 -13960.016153 -15557.839448 -16227.470956     44.712664  7  5  6 116       
PG15   6269.486741 -20124.025848  15873.513989   -263.775780  8  8  5  83       
PG16 -22367.363360   1922.516603  14397.488501   -102.032789  9 10  7 132       
PG17  14596.467875  14017.674073 -17011.360414   -182.525659  4  8  7 110       
PG18 -16267.381081 -15734.079708  14633.097320    422.106241  7  8  6  85       
PG19  -8864.835847  18235.221988  16696.199089   -517.346394  9  8  7 128       
PG20   6599.570835 -14715.716938  20962.446392    343.476251  5  6  5 117       
PG21  -6819.945007 -15335.746108  21238.586377   -468.640133  6  6  4 101       
PG22 -24636.571930  -9538.895858   3784.831486    377.120189  9  9  5 115       
PG23  -1302.774254  24372.967473  -9747.017946   -124.654083  7  9  5  79       
PG24  12791.969578 -21483.857285  -8767.663135     -2.310294  7  9  7 132       
PG25  -8466.327353 -16120.223876 -19497.414070    -20.247568  7  7  7  97       
PG26 -25822.366873  -3804.655312   4918.856548    -18.685854  6  9  6 126       
PG27 -13532.047310   7270.563041  21630.105496      8.762850  6  7  7 129       
PG28  21861.929180  13430.285576   7645.170873    457.716513  4  6  7  89       
PG29  -4798.634382 -26147.518037   -209.945200    625.798479  7  5  7 128       
PG30  12895.267636   8969.730114  21420.291424     -1.967184  6  5  6 115       
PG31 -20161.010459   2469.180333 -17159.768665    307.822826  7  6  6 117       
PG32 -15954.922315   8728.853470 -19201.583541    -83.845868  6  9  3  66       
EOF
